IRIDIUM 921 [-]         
1 24873U 97034E   24100.11156851  .00019824  00000+0  59070-3 0  9999
2 24873  86.3818 322.2052 0005502 130.4737 229.6995 15.34544532464858
IRIDIUM 26 [-]          
1 24903U 97043A   24100.01172392  .00000466  00000+0  15288-3 0  9995
2 24903  86.3903 292.8032 0002311  90.5282 269.6180 14.36269925394407
IRIDIUM 22 [-]          
1 24907U 97043E   24100.50199959  .00000414  00000+0  13797-3 0  9997
2 24907  86.3909 295.7821 0002074  90.8857 269.2577 14.35163274394542
DUMMY MASS 1 [-]        
1 24925U 97048A   24100.17896526  .00000452  00000+0  48415-4 0  9997
2 24925  86.3362 335.8898 0004735 232.3631 127.7164 14.86126682440892
DUMMY MASS 2 [-]        
1 24926U 97048B   24100.40641809  .00000450  00000+0  48461-4 0  9995
2 24926  86.3366 337.3152 0005312 248.3637 111.7022 14.85885926440711
IRIDIUM 29 [-]          
1 24944U 97051A   24100.17792802  .00000388  00000+0  12789-3 0  9996
2 24944  86.3955 325.8547 0001924  91.6879 268.4538 14.35622330391201
IRIDIUM 33 [-]          
1 24946U 97051C   24100.34980025  .00000268  00000+0  88570-4 0  9992
2 24946  86.3870 325.0392 0009761  61.5438 298.6740 14.34304315390559
IRIDIUM 28 [-]          
1 24948U 97051E   24100.15783960  .00000405  00000+0  13134-3 0  9998
2 24948  86.3956 323.6274 0002548  84.8205 275.3282 14.36571380391582
